NORAD_CAT_ID,OBJECT_NAME,OBJECT_TYPE,EPOCH,MEAN_MOTION,ECCENTRICITY,INCLINATION,RA_OF_ASC_NODE,ARG_OF_PERICENTER,MEAN_ANOMALY,BSTAR,MEAN_MOTION_DOT,MEAN_MOTION_DDOT,TLE_LINE0,TLE_LINE1,TLE_LINE2,SEMIMAJOR_AXIS,PERIOD,APOGEE,PERIGEE,DECAYED
53892.0,STARLINK-5046,PAYLOAD,2024-05-15 01:53:33,15.08882836,0.0001358,53.2172,63.0604,93.3889,266.7258,0.00054366,8.385e-05,0.0,0 STARLINK-5046,1 53892U 22119G   24136.07886173  .00008385  00000-0  54366-3 0  9999,2 53892  53.2172  63.0604 0001358  93.3889 266.7258 15.08882836 91088,6917.749,95.435,540.554,538.675,0.0
53892.0,STARLINK-5046,PAYLOAD,2024-05-15 05:04:19,15.08886575,0.0001401,53.2175,62.463,95.1735,264.9418,0.00048854,7.506e-05,0.0,0 STARLINK-5046,1 53892U 22119G   24136.21133608  .00007506  00000-0  48854-3 0  9992,2 53892  53.2175  62.4630 0001401  95.1735 264.9418 15.08886575 91523,6917.738,95.435,540.572,538.634,0.0
53892.0,STARLINK-5046,PAYLOAD,2024-05-15 19:22:47,15.08858099,0.0001666,53.2175,59.788,94.7502,265.3681,-0.00023171,-3.976e-05,0.0,0 STARLINK-5046,1 53892U 22119G   24136.80749703 -.00003976  00000-0 -23171-3 0  9990,2 53892  53.2175  59.7880 0001666  94.7502 265.3681 15.08858099 91199,6917.825,95.436,540.843,538.538,0.0
53892.0,STARLINK-5046,PAYLOAD,2024-05-15 22:33:33,15.08859479,0.000148,53.2175,59.1936,116.5089,243.6055,-0.00018351,-3.209e-05,0.0,0 STARLINK-5046,1 53892U 22119G   24136.93997357 -.00003209  00000-0 -18351-3 0  9997,2 53892  53.2175  59.1936 0001480 116.5089 243.6055 15.08859479 91638,6917.821,95.436,540.71,538.662,0.0
53892.0,STARLINK-5046,PAYLOAD,2024-05-16 01:44:19,15.08868165,0.0001268,53.2177,58.6009,106.3472,253.766,2.5687e-05,1.21e-06,0.0,0 STARLINK-5046,1 53892U 22119G   24137.07244877  .00000121  00000-0  25687-4 0  9994,2 53892  53.2177  58.6009 0001268 106.3472 253.7660 15.08868165 91234,6917.794,95.436,540.536,538.782,0.0
53892.0,STARLINK-5046,PAYLOAD,2024-05-16 11:16:38,15.08861813,0.0001059,53.2171,56.8169,111.7444,248.3661,0.00013196,1.814e-05,0.0,0 STARLINK-5046,1 53892U 22119G   24137.46988623  .00001814  00000-0  13196-3 0  9992,2 53892  53.2171  56.8169 0001059 111.7444 248.3661 15.08861813 91719,6917.814,95.436,540.411,538.946,0.0
53892.0,STARLINK-5046,PAYLOAD,2024-05-16 19:13:33,15.08859117,0.0001062,53.2174,55.3309,111.0486,249.062,3.6984e-05,3.01e-06,0.0,0 STARLINK-5046,1 53892U 22119G   24137.80108292  .00000301  00000-0  36984-4 0  9997,2 53892  53.2174  55.3309 0001062 111.0486 249.0620 15.08859117 91341,6917.822,95.436,540.422,538.952,0.0
53892.0,STARLINK-5046,PAYLOAD,2024-05-17 01:35:03,15.08914317,0.0001918,53.2177,54.1372,84.5604,275.5607,0.00095581,0.00014987,0.0,0 STARLINK-5046,1 53892U 22119G   24138.06601334  .00014987  00000-0  95581-3 0  9993,2 53892  53.2177  54.1372 0001918  84.5604 275.5607 15.08914317 91384,6917.653,95.433,540.845,538.191,0.0
53892.0,STARLINK-5046,PAYLOAD,2024-05-17 22:15:08,15.08811454,0.0001731,53.2172,50.2717,53.5138,306.6014,-0.00056418,-9.249e-05,0.0,0 STARLINK-5046,1 53892U 22119G   24138.92718286 -.00009249  00000-0 -56418-3 0  9996,2 53892  53.2172  50.2717 0001731  53.5138 306.6014 15.08811454 91937,6917.968,95.439,541.03,538.635,0.0
53892.0,STARLINK-5046,PAYLOAD,2024-05-18 04:36:40,15.08836524,0.000112,53.2168,49.0832,117.0394,243.0713,7.7065e-05,9.39e-06,0.0,0 STARLINK-5046,1 53892U 22119G   24139.19213471  .00000939  00000-0  77065-4 0  9999,2 53892  53.2168  49.0832 0001120 117.0394 243.0713 15.08836524 91551,6917.891,95.438,540.531,538.981,0.0
53892.0,STARLINK-5046,PAYLOAD,2024-05-18 10:58:13,15.08840354,0.0001324,53.2161,47.8936,76.627,283.487,0.00027975,4.167e-05,0.0,0 STARLINK-5046,1 53892U 22119G   24139.45709742  .00004167  00000-0  27975-3 0  9990,2 53892  53.2161  47.8936 0001324  76.6270 283.4870 15.08840354 92014,6917.879,95.438,540.66,538.828,0.0
53892.0,STARLINK-5046,PAYLOAD,2024-05-18 22:05:55,15.08844978,0.0001403,53.2166,45.8114,78.8745,281.2405,0.00060019,9.278e-05,0.0,0 STARLINK-5046,1 53892U 22119G   24139.92077899  .00009278  00000-0  60019-3 0  9997,2 53892  53.2166  45.8114 0001403  78.8745 281.2405 15.08844978 92087,6917.865,95.437,540.701,538.76,0.0
53892.0,STARLINK-5046,PAYLOAD,2024-05-19 02:52:03,15.08848328,0.0001155,53.2175,44.9202,101.9672,258.145,0.0018281,0.00028933,0.0,0 STARLINK-5046,1 53892U 22119G   24140.11949052  .00028933  00000-0  18281-2 0  9991,2 53892  53.2175  44.9202 0001155 101.9672 258.1450 15.08848328 91698,6917.855,95.437,540.519,538.921,0.0
53892.0,STARLINK-5046,PAYLOAD,2024-05-19 17:10:33,15.0882966,0.0001788,53.2168,42.2438,91.9778,268.1419,-0.00012728,-2.313e-05,0.0,0 STARLINK-5046,1 53892U 22119G   24140.71566487 -.00002313  00000-0 -12728-3 0  9991,2 53892  53.2168  42.2438 0001788  91.9778 268.1419 15.08829660 91783,6917.912,95.438,541.014,538.54,0.0
53892.0,STARLINK-5046,PAYLOAD,2024-05-20 02:42:52,15.08835635,0.0001393,53.2169,40.4592,111.6776,248.4365,0.00051068,7.848e-05,0.0,0 STARLINK-5046,1 53892U 22119G   24141.11310596  .00007848  00000-0  51068-3 0  9990,2 53892  53.2169  40.4592 0001393 111.6776 248.4365 15.08835635 91842,6917.894,95.438,540.722,538.795,0.0
53892.0,STARLINK-5046,PAYLOAD,2024-05-21 02:33:39,15.088677,0.0001508,53.217,35.9991,77.5568,282.5592,0.001284,0.00020221,0.0,0 STARLINK-5046,1 53892U 22119G   24142.10670447  .00020221  00000-0  12840-2 0  9998,2 53892  53.2170  35.9991 0001508  77.5568 282.5592 15.08867700 91998,6917.796,95.436,540.704,538.618,0.0
53892.0,STARLINK-5046,PAYLOAD,2024-05-21 20:02:53,15.08850226,0.0001283,53.2175,32.7282,85.9261,274.1878,0.00036928,5.596e-05,0.0,0 STARLINK-5046,1 53892U 22119G   24142.83534418  .00005596  00000-0  36928-3 0  9997,2 53892  53.2175  32.7282 0001283  85.9261 274.1878 15.08850226 92107,6917.849,95.437,540.602,538.827,0.0
53892.0,STARLINK-5046,PAYLOAD,2024-05-21 21:38:16,15.08850831,0.0001371,53.2176,32.4308,87.9425,272.1724,0.00038267,5.809e-05,0.0,0 STARLINK-5046,1 53892U 22119G   24142.90158374  .00005809  00000-0  38267-3 0  9993,2 53892  53.2176  32.4308 0001371  87.9425 272.1724 15.08850831 92533,6917.847,95.437,540.661,538.764,0.0
53892.0,STARLINK-5046,PAYLOAD,2024-05-22 02:24:26,15.08856874,0.0001357,53.2179,31.5386,88.1858,271.929,0.00066132,0.00010257,0.0,0 STARLINK-5046,1 53892U 22119G   24143.10030187  .00010257  00000-0  66132-3 0  9992,2 53892  53.2179  31.5386 0001357  88.1858 271.9290 15.08856874 92560,6917.829,95.436,540.633,538.755,0.0
53892.0,STARLINK-5046,PAYLOAD,2024-05-22 19:53:40,15.08838046,0.0001978,53.219,28.2648,119.571,240.5479,0.00053579,8.249e-05,0.0,0 STARLINK-5046,1 53892U 22119G   24143.82894448  .00008249  00000-0  53579-3 0  9998,2 53892  53.2190  28.2648 0001978 119.5710 240.5479 15.08838046 92250,6917.886,95.438,541.12,538.383,0.0
53892.0,STARLINK-5046,PAYLOAD,2024-05-22 21:29:03,15.08842343,0.0001853,53.2191,27.9674,116.1876,243.9306,0.0002555,3.781e-05,0.0,0 STARLINK-5046,1 53892U 22119G   24143.89518287  .00003781  00000-0  25550-3 0  9993,2 53892  53.2191  27.9674 0001853 116.1876 243.9306 15.08842343 92682,6917.873,95.437,541.02,538.456,0.0
53892.0,STARLINK-5046,PAYLOAD,2024-05-22 23:04:27,15.08840682,0.0001459,53.2186,27.6748,89.1388,270.9771,0.00035681,5.395e-05,0.0,0 STARLINK-5046,1 53892U 22119G   24143.96142563  .00005395  00000-0  35681-3 0  9990,2 53892  53.2186  27.6748 0001459  89.1388 270.9771 15.08840682 92695,6917.878,95.438,540.753,538.734,0.0
53892.0,STARLINK-5046,PAYLOAD,2024-05-23 21:19:51,15.0884479,0.0001521,53.2187,23.5149,92.7497,267.3669,0.00035802,5.415e-05,0.0,0 STARLINK-5046,1 53892U 22119G   24144.88878777  .00005415  00000-0  35802-3 0  9993,2 53892  53.2187  23.5149 0001521  92.7497 267.3669 15.08844790 92833,6917.866,95.437,540.783,538.679,0.0
53892.0,STARLINK-5046,PAYLOAD,2024-05-24 02:06:00,15.0885056,0.0001545,53.2188,22.6173,91.7481,268.3688,0.00045285,6.929e-05,0.0,0 STARLINK-5046,1 53892U 22119G   24145.08750517  .00006929  00000-0  45285-3 0  9994,2 53892  53.2188  22.6173 0001545  91.7481 268.3688 15.08850560 92440,6917.848,95.437,540.782,538.644,0.0
53892.0,STARLINK-5046,PAYLOAD,2024-05-24 21:10:38,15.08841185,0.0001309,53.2172,19.0454,86.0296,274.0846,0.00012146,1.646e-05,0.0,0 STARLINK-5046,1 53892U 22119G   24145.88238763  .00001646  00000-0  12146-3 0  9997,2 53892  53.2172  19.0454 0001309  86.0296 274.0846 15.08841185 92560,6917.877,95.437,540.647,538.836,0.0
53892.0,STARLINK-5046,PAYLOAD,2024-05-24 22:46:01,15.08837287,0.000122,53.2171,18.7574,81.688,278.4251,4.796e-05,4.75e-06,0.0,0 STARLINK-5046,1 53892U 22119G   24145.94862926  .00000475  00000-0  47960-4 0  9990,2 53892  53.2171  18.7574 0001220  81.6880 278.4251 15.08837287 92993,6917.889,95.438,540.598,538.91,0.0
53892.0,STARLINK-5046,PAYLOAD,2024-05-25 08:18:20,15.08836684,0.0001242,53.2171,16.9718,95.3822,264.7312,9.9879e-05,1.302e-05,0.0,0 STARLINK-5046,1 53892U 22119G   24146.34607079  .00001302  00000-0  99879-4 0  9997,2 53892  53.2171  16.9718 0001242  95.3822 264.7312 15.08836684 93059,6917.891,95.438,540.615,538.896,0.0
53892.0,STARLINK-5046,PAYLOAD,2024-05-25 21:01:25,15.08835434,0.0001227,53.2168,14.593,86.8441,273.2692,8.8559e-05,1.122e-05,0.0,0 STARLINK-5046,1 53892U 22119G   24146.87599360  .00001122  00000-0  88559-4 0  9991,2 53892  53.2168  14.5930 0001227  86.8441 273.2692 15.08835434 92710,6917.894,95.438,540.608,538.911,0.0
53892.0,STARLINK-5046,PAYLOAD,2024-05-26 01:47:35,15.08845889,0.0001128,53.2166,13.7005,88.2111,271.901,0.0003834,5.82e-05,0.0,0 STARLINK-5046,1 53892U 22119G   24147.07471095  .00005820  00000-0  38340-3 0  9999,2 53892  53.2166  13.7005 0001128  88.2111 271.9010 15.08845889 92749,6917.862,95.437,540.508,538.947,0.0
53892.0,STARLINK-5046,PAYLOAD,2024-05-26 14:30:40,15.08834844,8.47e-05,53.2158,11.3224,62.2292,297.8786,0.00010399,1.367e-05,0.0,0 STARLINK-5046,1 53892U 22119G   24147.60463622  .00001367  00000-0  10399-3 0  9991,2 53892  53.2158  11.3224 0000847  62.2292 297.8786 15.08834844 93248,6917.896,95.438,540.347,539.175,0.0
